[{"OBJECT_NAME":"STARLINK-3633","OBJECT_ID":"2022-017AB","EPOCH":"2026-03-10T00:00:02.999808","MEAN_MOTION":15.39868705,"ECCENTRICITY":0.00016754,"INCLINATION":53.2187,"RA_OF_ASC_NODE":342.1898,"ARG_OF_PERICENTER":57.4392,"MEAN_ANOMALY":30.5181,"EPHEMERIS_TYPE":0,"CLASSIFICATION_TYPE":"U","NORAD_CAT_ID":51793,"ELEMENT_SET_NO":999,"REV_AT_EPOCH":584,"BSTAR":0.011808492,"MEAN_MOTION_DOT":0.00508972,"MEAN_MOTION_DDOT":0},{"OBJECT_NAME":"FLOCK 4BE-2","OBJECT_ID":"2024-149AV","EPOCH":"2026-03-09T18:13:11.817984","MEAN_MOTION":15.43222987,"ECCENTRICITY":0.00028517,"INCLINATION":97.3841,"RA_OF_ASC_NODE":153.9677,"ARG_OF_PERICENTER":272.6636,"MEAN_ANOMALY":87.4286,"EPHEMERIS_TYPE":0,"CLASSIFICATION_TYPE":"U","NORAD_CAT_ID":60511,"ELEMENT_SET_NO":999,"REV_AT_EPOCH":8712,"BSTAR":0.0010005799,"MEAN_MOTION_DOT":0.0004454,"MEAN_MOTION_DDOT":0}]
